OBJECT_NAME,OBJECT_ID,EPOCH,MEAN_MOTION,ECCENTRICITY,INCLINATION,RA_OF_ASC_NODE,ARG_OF_PERICENTER,MEAN_ANOMALY,EPHEMERIS_TYPE,CLASSIFICATION_TYPE,NORAD_CAT_ID,ELEMENT_SET_NO,REV_AT_EPOCH,BSTAR,MEAN_MOTION_DOT,MEAN_MOTION_DDOT
DMSP 5D-3 F16 (USA 172),2003-048A,2026-06-15T23:19:52.184064,14.14483126,.00077085,98.9890,190.7924,143.4498,328.8182,0,U,28054,999,16931,.22889336E-4,-.1E-7,0
METEOSAT-9 (MSG-2),2005-049B,2026-06-15T20:07:12.874944,1.00271428,.00015787,9.3585,54.1816,343.5552,213.8225,0,U,28912,999,698,0,.118E-5,0
DMSP 5D-3 F17 (USA 191),2006-050A,2026-06-15T21:31:31.542240,14.14992988,.0011196,98.7378,173.4934,62.7996,297.4317,0,U,29522,999,1224,.31888101E-4,.19E-6,0
FENGYUN 3A,2008-026A,2026-06-15T20:22:43.028832,14.19570837,.00095316,98.6883,107.7072,127.1837,233.0211,0,U,32958,999,93521,.42620055E-4,.47E-6,0
GOES 14,2009-033A,2026-06-15T20:34:57.070272,1.00111178,.00017148,1.6869,83.0567,10.9792,261.4348,0,U,35491,999,657,0,-.286E-5,0
DMSP 5D-3 F18 (USA 210),2009-057A,2026-06-15T22:32:01.183776,14.14896073,.00098808,98.9037,147.7107,253.5128,106.4959,0,U,35951,999,85941,.12873543E-3,.204E-5,0
EWS-G2 (GOES 15),2010-008A,2026-06-15T18:08:38.768064,1.00275788,.00053933,1.2741,82.8801,42.3367,114.6857,0,U,36411,999,5962,0,.18E-6,0
COMS 1,2010-032A,2026-06-15T18:37:04.240992,0.99162489,.0011453,4.8015,75.3707,11.7747,175.2597,0,U,36744,999,5107,0,.38E-6,0
FENGYUN 3B,2010-059A,2026-06-15T21:52:24.618720,14.14840935,.00218379,98.9623,212.9203,187.6466,345.4289,0,U,37214,999,80724,-.47387357E-4,-.137E-5,0
SUOMI NPP,2011-061A,2026-06-15T22:20:23.025120,14.19517118,.00016076,98.7953,107.8155,9.7705,350.3502,0,U,37849,999,75826,.49175567E-4,.59E-6,0
METEOSAT-10 (MSG-3),2012-035B,2026-06-15T21:37:03.141984,1.00276584,.00014525,4.6688,61.0268,328.0735,199.6782,0,U,38552,999,5084,0,-.6E-7,0
METOP-B,2012-049A,2026-06-15T22:08:31.006176,14.21432422,.00023085,98.6505,218.4470,22.7753,337.3527,0,U,38771,999,71308,.63978033E-4,.97E-6,0
INSAT-3D,2013-038B,2026-06-15T20:31:12.429408,1.00269716,.00005499,1.9229,82.5552,308.7384,310.1572,0,U,39216,999,4706,0,-.339E-5,0
FENGYUN 3C,2013-052A,2026-06-15T21:54:46.541088,14.15754763,.00153141,98.4986,140.8463,31.1561,329.0518,0,U,39260,999,65838,.51260364E-4,.59E-6,0
METEOR-M 2,2014-037A,2026-06-15T22:46:31.230912,14.21460252,.00068083,98.5107,142.7310,47.4787,312.6964,0,U,40069,999,61914,-.10031043E-3,-.261E-5,0
HIMAWARI-8,2014-060A,2026-06-15T20:34:27.117984,1.00271996,.00009688,0.0155,347.4453,100.2464,265.7211,0,U,40267,999,4274,0,-.274E-5,0
FENGYUN 2G,2014-090A,2026-06-15T22:18:38.251296,1.00272763,.00040811,5.6350,72.8268,156.1097,109.6095,0,U,40367,999,4198,0,-.306E-5,0
METEOSAT-11 (MSG-4),2015-034A,2026-06-15T21:39:40.390848,1.00279968,.00017626,3.1982,71.1177,10.6881,156.9218,0,U,40732,999,720,0,.64E-6,0
ELEKTRO-L 2,2015-074A,2026-06-15T23:15:26.836704,1.00270394,.00010479,6.6903,70.5362,244.2830,283.7788,0,U,41105,999,3849,0,-.122E-5,0
SENTINEL-3A,2016-011A,2026-06-15T21:13:05.294784,14.26739625,.00013932,98.6249,234.2864,102.1373,257.9964,0,U,41335,999,53787,.55337043E-4,.9E-6,0
INSAT-3DR,2016-054A,2026-06-15T20:15:23.577696,1.00270823,.00106331,0.1031,86.5448,187.3806,8.0186,0,U,41752,999,3580,0,-.75E-6,0
HIMAWARI-9,2016-064A,2026-06-15T13:43:49.326816,1.00269554,.00008242,0.0518,143.5801,357.0812,109.9131,0,U,41836,999,3519,0,-.273E-5,0
GOES 16,2016-071A,2026-06-15T15:59:04.545312,1.00270906,.00002044,0.3375,85.5256,299.1466,14.3526,0,U,41866,999,3508,0,-.89E-6,0
FENGYUN 4A,2016-077A,2026-06-15T22:12:12.739680,1.00269170,.00087244,2.3186,80.2906,153.3747,127.3585,0,U,41882,999,3491,0,-.358E-5,0
CYGFM05,2016-078A,2026-06-15T16:54:21.250368,15.56617530,.00068442,34.9572,270.4087,136.1338,223.9930,0,U,41884,999,52852,.27029742E-3,.19899E-3,0
CYGFM04,2016-078B,2026-06-15T14:46:35.363712,15.61441990,.00064765,34.9319,238.7656,180.9512,179.1202,0,U,41885,999,52875,.28651099E-3,.25374E-3,0
CYGFM02,2016-078C,2026-06-15T20:59:27.422016,15.64432138,.00075218,34.9396,231.6121,184.3943,175.6718,0,U,41886,999,52896,.2746823E-3,.27379E-3,0
CYGFM01,2016-078D,2026-06-15T16:39:02.122848,15.57292832,.00066272,34.9401,271.5487,129.5981,230.5329,0,U,41887,999,52847,.28123088E-3,.2124E-3,0
CYGFM08,2016-078E,2026-06-15T21:52:59.098368,15.59963222,.00082165,34.9426,249.7155,165.1851,194.9116,0,U,41888,999,52877,.28176036E-3,.23574E-3,0
CYGFM07,2016-078G,2026-06-15T14:45:40.283712,15.60051101,.00068928,34.9439,240.0344,179.5306,180.5427,0,U,41890,999,52875,.27922853E-3,.23429E-3,0
CYGFM03,2016-078H,2026-06-15T21:44:38.943456,15.60055421,.00063716,34.9394,240.0351,170.2723,189.8127,0,U,41891,999,52877,.28064615E-3,.23549E-3,0
